      2.10          N: GNSS NAV DATA                        RINEX VERSION / TYPE
fic2rin                                 09/11/2024 00:59:02 PGM / RUN BY / DATE
                                                            END OF HEADER
19 24  9 10  6  0  0.0  .536109320819D-03  .500222085975D-11  .000000000000D+00
     .650000000000D+02  .543750000000D+02  .448982987658D-08 -.237387900319D+01
     .292062759399D-05  .997706921771D-02  .398419797421D-05  .515373777962D+04
     .194400000000D+06 -.175088644028D-06 -.799668045658D+00  .651925802231D-07
     .966469412073D+00  .308843750000D+03  .264319716135D+01 -.809212278368D-08
    -.596453416107D-10  .100000000000D+01  .233100000000D+04  .000000000000D+00
     .240000000000D+01  .000000000000D+00 -.153668224812D-07  .650000000000D+02
     .187200000000D+06  .400000000000D+01
28 24  9 10  6  0  0.0 -.405605882406D-03 -.140971678775D-10  .000000000000D+00
     .159000000000D+03 -.101562500000D+02  .453840332843D-08 -.191274878306D+01
    -.447034835815D-06  .383805599995D-03  .773184001446D-05  .515370936203D+04
     .194400000000D+06 -.242143869400D-07 -.303061589583D+01 -.745058059692D-08
     .961813041842D+00  .225625000000D+03  .140698707404D+01 -.793997358891D-08
    -.585738684082D-10  .100000000000D+01  .233100000000D+04  .000000000000D+00
     .240000000000D+01  .000000000000D+00 -.931322574615D-08  .159000000000D+03
     .187200000000D+06  .400000000000D+01
23 24  9 10  6  0  0.0  .316827557981D-03  .841282599140D-11  .000000000000D+00
     .119000000000D+03 -.603750000000D+02  .382373070230D-08 -.109842303848D+01
    -.315718352795D-05  .465644628275D-02  .812299549580D-05  .515360809135D+04
     .194400000000D+06  .875443220139D-07  .116243295614D+01 -.171363353729D-06
     .980527013217D+00  .238125000000D+03 -.295479902969D+01 -.765103298195D-08
     .742888087128D-10  .100000000000D+01  .233100000000D+04  .000000000000D+00
     .240000000000D+01  .000000000000D+00 -.838190317154D-08  .375000000000D+03
     .187200000000D+06  .400000000000D+01
3  24  9 10  5 59 44.0  .532387755811D-03  .136424205266D-10  .000000000000D+00
     .300000000000D+01 -.437812500000D+02  .382087344043D-08 -.134404314529D+01
    -.237673521042D-05  .572281377390D-02  .807456672192D-05  .515366502380D+04
     .194384000000D+06  .111758708954D-06  .119448523670D+01  .126659870148D-06
     .985736465960D+00  .237187500000D+03  .115839211893D+01 -.770782106169D-08
     .614311302817D-10  .100000000000D+01  .233100000000D+04  .000000000000D+00
     .240000000000D+01  .000000000000D+00  .139698386192D-08  .300000000000D+01
     .187440000000D+06  .400000000000D+01
24 24  9 10  5 59 44.0 -.486772973090D-03  .113686837722D-12  .000000000000D+00
     .400000000000D+01 -.656250000000D+01  .529522056719D-08  .166652001016D+00
    -.368803739548D-06  .158747057430D-01  .765547156334D-05  .515369423866D+04
     .194384000000D+06 -.134110450745D-06 -.309759834014D+01  .270083546638D-06
     .934463712279D+00  .222500000000D+03  .100582830282D+01 -.849821112746D-08
    -.104290058385D-09  .100000000000D+01  .233100000000D+04  .000000000000D+00
     .240000000000D+01  .000000000000D+00  .232830643654D-08  .400000000000D+01
     .187440000000D+06  .400000000000D+01
30 24  9 10  5 59 44.0 -.324114225805D-03  .704858393874D-11  .000000000000D+00
     .340000000000D+02 -.740625000000D+01  .512164190837D-08 -.919770237699D+00
    -.242143869400D-06  .716850243043D-02  .788830220699D-05  .515358279991D+04
     .194384000000D+06  .121071934700D-06 -.299973402287D+01  .149011611938D-06
     .935882830591D+00  .211593750000D+03 -.244764632988D+01 -.827427322812D-08
    -.853606984729D-10  .100000000000D+01  .233100000000D+04  .000000000000D+00
     .240000000000D+01  .000000000000D+00  .372529029846D-08  .340000000000D+02
     .187440000000D+06  .400000000000D+01
1  24  9 10  6  0  0.0  .201515387744D-03 -.932232069317D-11  .000000000000D+00
     .980000000000D+02  .654687500000D+02  .586703009964D-08 -.278270325449D+01
     .310502946377D-05  .134210836841D-01  .901520252228D-05  .515361722946D+04
     .194400000000D+06  .141561031342D-06 -.193632165543D+01 -.137835741043D-06
     .953614907443D+00  .200125000000D+03  .103451634433D+01 -.779103881375D-08
     .128576784311D-10  .100000000000D+01  .233100000000D+04  .000000000000D+00
     .485000000000D+01  .630000000000D+02 -.195577740669D-07  .980000000000D+02
     .188700000000D+06  .400000000000D+01
31 24  9 10  5 59 44.0 -.224877614528D-03  .454747350886D-12  .000000000000D+00
     .000000000000D+00 -.119687500000D+02  .469555273148D-08 -.179215605703D+01
    -.836327672005D-06  .106375595788D-01  .743754208088D-05  .515377674866D+04
     .194384000000D+06  .108033418655D-06 -.297680643489D+01 -.968575477600D-07
     .954677615023D+00  .224656250000D+03  .724375429373D+00 -.791068665471D-08
     .339299847486D-10  .100000000000D+01  .233100000000D+04  .000000000000D+00
     .240000000000D+01  .000000000000D+00 -.130385160446D-07  .000000000000D+00
     .191730000000D+06  .400000000000D+01
12 24  9 10  5 59 44.0 -.536934006959D-03 -.284217094304D-11  .000000000000D+00
     .100000000000D+02  .800000000000D+02  .454947521819D-08 -.150653735904D+01
     .439584255219D-05  .867602543440D-02  .875443220139D-05  .515360041046D+04
     .194384000000D+06  .223517417908D-07 -.188293063733D+01  .191852450371D-06
     .961532439526D+00  .214000000000D+03  .146181119888D+01 -.792533012181D-08
    -.357157734196D-10  .100000000000D+01  .233100000000D+04  .000000000000D+00
     .240000000000D+01  .000000000000D+00 -.125728547573D-07  .100000000000D+02
     .193950000000D+06  .400000000000D+01
12 24  9 10  7 59 44.0 -.536954030395D-03 -.284217094304D-11  .000000000000D+00
     .510000000000D+02  .752500000000D+02  .452768859640D-08 -.456292019423D+00
     .379234552383D-05  .867556803860D-02  .876002013683D-05  .515360019875D+04
     .201584000000D+06 -.856816768646D-07 -.188298874298D+01  .447034835815D-07
     .961531718307D+00  .219343750000D+03  .146179143046D+01 -.807926510525D-08
     .750031241812D-11  .100000000000D+01  .233100000000D+04  .000000000000D+00
     .240000000000D+01  .000000000000D+00 -.125728547573D-07  .510000000000D+02
     .194400000000D+06  .400000000000D+01
31 24  9 10  7 59 44.0 -.224874354899D-03  .454747350886D-12  .000000000000D+00
     .900000000000D+01 -.303125000000D+01  .470162441296D-08 -.742152703079D+00
     .158324837685D-06  .106373642338D-01  .776536762714D-05  .515377437592D+04
     .201584000000D+06  .128522515297D-06 -.297686334532D+01  .137835741043D-06
     .954676708014D+00  .223125000000D+03  .724491778173D+00 -.811140930133D-08
    -.657170230921D-10  .100000000000D+01  .233100000000D+04  .000000000000D+00
     .240000000000D+01  .000000000000D+00 -.130385160446D-07  .900000000000D+01
     .194400000000D+06  .400000000000D+01
2  24  9 10  8  0  0.0 -.361132901162D-03  .795807864051D-11  .000000000000D+00
     .189000000000D+03 -.277187500000D+02  .445411410316D-08 -.301925700404D+01
    -.128336250782D-05  .161091955379D-01  .382959842682D-05  .515369289398D+04
     .201600000000D+06  .147148966789D-06  .580979614076D-01  .309199094772D-06
     .967293623045D+00  .304937500000D+03 -.113514261582D+01 -.790640076190D-08
    -.792890169915D-10  .100000000000D+01  .233100000000D+04  .000000000000D+00
     .240000000000D+01  .000000000000D+00 -.176951289177D-07  .189000000000D+03
     .194400000000D+06  .400000000000D+01
1  24  9 10  8  0  0.0  .201448332518D-03 -.932232069317D-11  .000000000000D+00
     .110000000000D+03  .722500000000D+02  .583917179637D-08 -.173254817837D+01
     .370293855667D-05  .134216757724D-01  .852905213833D-05  .515361516762D+04
     .201600000000D+06  .240281224251D-06 -.193637770275D+01 -.484287738800D-07
     .953615034717D+00  .204968750000D+03  .103458666095D+01 -.783425489959D-08
     .178578867098D-11  .100000000000D+01  .233100000000D+04  .000000000000D+00
     .485000000000D+01  .630000000000D+02 -.195577740669D-07  .110000000000D+03
     .194400000000D+06  .400000000000D+01
5  24  9 10  8  0  0.0 -.186102930456D-03 -.125055521494D-11  .000000000000D+00
     .170000000000D+02 -.584687500000D+02  .404659712844D-08 -.286648239314D+01
    -.295229256153D-05  .589103612583D-02  .827386975288D-05  .515367425156D+04
     .201600000000D+06  .651925802231D-07  .114169661024D+01 -.372529029846D-08
     .972678605477D+00  .225187500000D+03  .132521436411D+01 -.774032241550D-08
     .939324840936D-10  .100000000000D+01  .233100000000D+04  .000000000000D+00
     .240000000000D+01  .000000000000D+00 -.107102096081D-07  .170000000000D+02
     .194400000000D+06  .400000000000D+01
